ORBCOMM FM33 [-]        
1 25983U 99065D   23232.17346160  .00000950  00000+0  36754-3 0  9997
2 25983  45.0294 280.8834 0009997 300.8013  95.8615 14.36647163240129
ORBCOMM FM36 [-]        
1 25984U 99065E   23232.44054774  .00001261  00000+0  49240-3 0  9995
2 25984  45.0420   0.5750 0004722 197.0450 163.0239 14.34535621239162
ORBCOMM FM35 [+]        
1 25985U 99065F   23232.48953327  .00000999  00000+0  40282-3 0  9996
2 25985  45.0419   2.3054 0002945 282.2564  77.7953 14.34254639239178
ORBCOMM FM34 [-]        
1 25986U 99065G   23232.45143532  .00001083  00000+0  43272-3 0  9990
2 25986  45.0414   2.9370 0004475 234.6369 125.4060 14.34194114239132
ORBCOMM FM38 [-]        
1 33060U 08031A   23232.05992085  .00001725  00000+0  27821-3 0  9991
2 33060  48.4409 239.7783 0005233  56.3483 303.7929 14.75872526816032
ORBCOMM FM41 [-]        
1 33061U 08031B   23232.49731439  .00001561  00000+0  25598-3 0  9991
2 33061  48.4447 243.7537 0004497  42.4872 118.9568 14.75649074816053
ORBCOMM FM29 [-]        
1 33062U 08031C   23232.10590977  .00001548  00000+0  25480-3 0  9995
2 33062  48.4400 253.5545 0006371  41.2358 357.9634 14.75515333815867
ORBCOMM FM39 [-]        
1 33063U 08031D   23232.24229843  .00001403  00000+0  23809-3 0  9995
2 33063  48.4418 271.6373 0007522  19.2938 340.8259 14.74706585815634
